{
  "type": "FeatureCollection",
  "features": [
    {
      "type": "Feature",
      "properties": {
        "norad_id": 39773,
        "name": "EUTELSAT 3B",
        "group": "eutelsat",
        "lat": -0.07872839655503215,
        "lon": -75.23142337140243,
        "alt_km": 35774.88393187189,
        "timestamp": "2025-12-04T13:52:00.119394+00:00",
        "meta_object_name": "EUTELSAT 3B",
        "meta_object_id": "2014-030A",
        "meta_epoch": "2025-12-04T05:10:49.325088",
        "meta_mean_motion": 1.00270965,
        "meta_eccentricity": 0.00047767,
        "meta_inclination": 0.0636,
        "meta_ra_of_asc_node": 4.0806,
        "meta_arg_of_pericenter": 224.8213,
        "meta_mean_anomaly": 285.1915,
        "meta_ephemeris_type": 0,
        "meta_classification_type": "U",
        "meta_norad_cat_id": 39773,
        "meta_element_set_no": 999,
        "meta_rev_at_epoch": 4211,
        "meta_bstar": 0,
        "meta_mean_motion_dot": 3.6e-07,
        "meta_mean_motion_ddot": 0,
        "tle_line1": "1 39773U 14030A   25338.21584867  .00000036  00000+0  00000+0 0  9996",
        "tle_line2": "2 39773   0.0636   4.0806 0004776 224.8213 285.1915  1.00270965 42119"
      },
      "geometry": {
        "type": "Point",
        "coordinates": [
          -75.23142337140243,
          -0.07872839655503215
        ]
      }
    },
    {
      "type": "Feature",
      "properties": {
        "norad_id": 40425,
        "name": "EUTELSAT 115 WEST B",
        "group": "eutelsat",
        "lat": 0.00536152626999424,
        "lon": 166.7541719466679,
        "alt_km": 35786.25786192275,
        "timestamp": "2025-12-04T13:52:00.119407+00:00",
        "meta_object_name": "EUTELSAT 115 WEST B",
        "meta_object_id": "2015-010B",
        "meta_epoch": "2025-12-04T06:19:51.176928",
        "meta_mean_motion": 1.0027368,
        "meta_eccentricity": 4.932e-05,
        "meta_inclination": 0.0127,
        "meta_ra_of_asc_node": 145.1164,
        "meta_arg_of_pericenter": 271.4317,
        "meta_mean_anomaly": 356.8728,
        "meta_ephemeris_type": 0,
        "meta_classification_type": "U",
        "meta_norad_cat_id": 40425,
        "meta_element_set_no": 999,
        "meta_rev_at_epoch": 3943,
        "meta_bstar": 0,
        "meta_mean_motion_dot": -1e-07,
        "meta_mean_motion_ddot": 0,
        "tle_line1": "1 40425U 15010B   25338.26378677 -.00000010  00000+0  00000+0 0  9999",
        "tle_line2": "2 40425   0.0127 145.1164 0000493 271.4317 356.8728  1.00273680 39435"
      },
      "geometry": {
        "type": "Point",
        "coordinates": [
          166.7541719466679,
          0.00536152626999424
        ]
      }
    },
    {
      "type": "Feature",
      "properties": {
        "norad_id": 40875,
        "name": "EUTELSAT 8 WEST B",
        "group": "eutelsat",
        "lat": -0.0835496773661876,
        "lon": -86.34788248177878,
        "alt_km": 35769.47758051564,
        "timestamp": "2025-12-04T13:52:00.119420+00:00",
        "meta_object_name": "EUTELSAT 8 WEST B",
        "meta_object_id": "2015-039B",
        "meta_epoch": "2025-12-04T05:07:42.123936",
        "meta_mean_motion": 1.00271624,
        "meta_eccentricity": 0.00041346,
        "meta_inclination": 0.0653,
        "meta_ra_of_asc_node": 348.9343,
        "meta_arg_of_pericenter": 266.6738,
        "meta_mean_anomaly": 246.6167,
        "meta_ephemeris_type": 0,
        "meta_classification_type": "U",
        "meta_norad_cat_id": 40875,
        "meta_element_set_no": 999,
        "meta_rev_at_epoch": 3770,
        "meta_bstar": 0,
        "meta_mean_motion_dot": -5e-07,
        "meta_mean_motion_ddot": 0,
        "tle_line1": "1 40875U 15039B   25338.21368199 -.00000050  00000+0  00000+0 0  9996",
        "tle_line2": "2 40875   0.0653 348.9343 0004134 266.6738 246.6167  1.00271624 37706"
      },
      "geometry": {
        "type": "Point",
        "coordinates": [
          -86.34788248177878,
          -0.0835496773661876
        ]
      }
    },
    {
      "type": "Feature",
      "properties": {
        "norad_id": 41310,
        "name": "EUTELSAT 9B",
        "group": "eutelsat",
        "lat": -0.052049228168131796,
        "lon": -69.35960158818281,
        "alt_km": 35767.15991893985,
        "timestamp": "2025-12-04T13:52:00.119431+00:00",
        "meta_object_name": "EUTELSAT 9B",
        "meta_object_id": "2016-005A",
        "meta_epoch": "2025-12-04T05:12:26.670240",
        "meta_mean_motion": 1.00271535,
        "meta_eccentricity": 0.00049541,
        "meta_inclination": 0.0679,
        "meta_ra_of_asc_node": 75.3059,
        "meta_arg_of_pericenter": 190.1546,
        "meta_mean_anomaly": 254.9316,
        "meta_ephemeris_type": 0,
        "meta_classification_type": "U",
        "meta_norad_cat_id": 41310,
        "meta_element_set_no": 999,
        "meta_rev_at_epoch": 3616,
        "meta_bstar": 0,
        "meta_mean_motion_dot": 7.8e-07,
        "meta_mean_motion_ddot": 0,
        "tle_line1": "1 41310U 16005A   25338.21697535  .00000078  00000+0  00000+0 0  9993",
        "tle_line2": "2 41310   0.0679  75.3059 0004954 190.1546 254.9316  1.00271535 36160"
      },
      "geometry": {
        "type": "Point",
        "coordinates": [
          -69.35960158818281,
          -0.052049228168131796
        ]
      }
    },
    {
      "type": "Feature",
      "properties": {
        "norad_id": 41382,
        "name": "EUTELSAT 65 WEST A",
        "group": "eutelsat",
        "lat": -0.06098001339534922,
        "lon": -143.59676836119363,
        "alt_km": 35777.96297998469,
        "timestamp": "2025-12-04T13:52:00.119443+00:00",
        "meta_object_name": "EUTELSAT 65 WEST A",
        "meta_object_id": "2016-014A",
        "meta_epoch": "2025-12-04T06:34:04.814976",
        "meta_mean_motion": 1.00270333,
        "meta_eccentricity": 0.00028281,
        "meta_inclination": 0.0496,
        "meta_ra_of_asc_node": 347.1995,
        "meta_arg_of_pericenter": 273.664,
        "meta_mean_anomaly": 205.8051,
        "meta_ephemeris_type": 0,
        "meta_classification_type": "U",
        "meta_norad_cat_id": 41382,
        "meta_element_set_no": 999,
        "meta_rev_at_epoch": 3558,
        "meta_bstar": 0,
        "meta_mean_motion_dot": -2.61e-06,
        "meta_mean_motion_ddot": 0,
        "tle_line1": "1 41382U 16014A   25338.27366684 -.00000261  00000+0  00000+0 0  9991",
        "tle_line2": "2 41382   0.0496 347.1995 0002828 273.6640 205.8051  1.00270333 35586"
      },
      "geometry": {
        "type": "Point",
        "coordinates": [
          -143.59676836119363,
          -0.06098001339534922
        ]
      }
    },
    {
      "type": "Feature",
      "properties": {
        "norad_id": 41589,
        "name": "EUTELSAT 117 WEST B",
        "group": "eutelsat",
        "lat": 0.00666645031408174,
        "lon": 164.62908079919794,
        "alt_km": 35786.55932899176,
        "timestamp": "2025-12-04T13:52:00.119455+00:00",
        "meta_object_name": "EUTELSAT 117 WEST B",
        "meta_object_id": "2016-038B",
        "meta_epoch": "2025-12-04T02:38:16.325088",
        "meta_mean_motion": 1.0026993,
        "meta_eccentricity": 1.619e-05,
        "meta_inclination": 0.0084,
        "meta_ra_of_asc_node": 141.8858,
        "meta_arg_of_pericenter": 294.8653,
        "meta_mean_anomaly": 279.0065,
        "meta_ephemeris_type": 0,
        "meta_classification_type": "U",
        "meta_norad_cat_id": 41589,
        "meta_element_set_no": 999,
        "meta_rev_at_epoch": 3470,
        "meta_bstar": 0,
        "meta_mean_motion_dot": 5e-08,
        "meta_mean_motion_ddot": 0,
        "tle_line1": "1 41589U 16038B   25338.10991117  .00000005  00000+0  00000+0 0  9998",
        "tle_line2": "2 41589   0.0084 141.8858 0000161 294.8653 279.0065  1.00269930 34704"
      },
      "geometry": {
        "type": "Point",
        "coordinates": [
          164.62908079919794,
          0.00666645031408174
        ]
      }
    },
    {
      "type": "Feature",
      "properties": {
        "norad_id": 42741,
        "name": "EUTELSAT 172B",
        "group": "eutelsat",
        "lat": -0.0045707297788352705,
        "lon": 93.62597444545354,
        "alt_km": 35786.51490001528,
        "timestamp": "2025-12-04T13:52:00.119467+00:00",
        "meta_object_name": "EUTELSAT 172B",
        "meta_object_id": "2017-029B",
        "meta_epoch": "2025-12-04T05:58:59.710080",
        "meta_mean_motion": 1.00271317,
        "meta_eccentricity": 1.593e-05,
        "meta_inclination": 0.0204,
        "meta_ra_of_asc_node": 143.0384,
        "meta_arg_of_pericenter": 68.0801,
        "meta_mean_anomaly": 123.9551,
        "meta_ephemeris_type": 0,
        "meta_classification_type": "U",
        "meta_norad_cat_id": 42741,
        "meta_element_set_no": 999,
        "meta_rev_at_epoch": 3177,
        "meta_bstar": 0,
        "meta_mean_motion_dot": 1e-07,
        "meta_mean_motion_ddot": 0,
        "tle_line1": "1 42741U 17029B   25338.24930220  .00000010  00000+0  00000+0 0  9999",
        "tle_line2": "2 42741   0.0204 143.0384 0000159  68.0801 123.9551  1.00271317 31773"
      },
      "geometry": {
        "type": "Point",
        "coordinates": [
          93.62597444545354,
          -0.0045707297788352705
        ]
      }
    }
  ]
}